[{"OBJECT_NAME":"STARLINK-36822","OBJECT_ID":"2026-036F","EPOCH":"2026-03-15T22:00:01.999584","MEAN_MOTION":15.59610547,"ECCENTRICITY":0.00014644,"INCLINATION":42.9995,"RA_OF_ASC_NODE":212.1331,"ARG_OF_PERICENTER":275.4523,"MEAN_ANOMALY":351.5822,"EPHEMERIS_TYPE":0,"CLASSIFICATION_TYPE":"U","NORAD_CAT_ID":67909,"ELEMENT_SET_NO":999,"REV_AT_EPOCH":464,"BSTAR":-0.025805266,"MEAN_MOTION_DOT":-0.01870503,"MEAN_MOTION_DDOT":0},{"OBJECT_NAME":"STARLINK-36847","OBJECT_ID":"2026-036G","EPOCH":"2026-03-15T22:00:01.999584","MEAN_MOTION":15.58746889,"ECCENTRICITY":0.00012968,"INCLINATION":42.9992,"RA_OF_ASC_NODE":212.1635,"ARG_OF_PERICENTER":280.0402,"MEAN_ANOMALY":334.3524,"EPHEMERIS_TYPE":0,"CLASSIFICATION_TYPE":"U","NORAD_CAT_ID":67910,"ELEMENT_SET_NO":999,"REV_AT_EPOCH":464,"BSTAR":-0.026643809,"MEAN_MOTION_DOT":-0.01868372,"MEAN_MOTION_DDOT":0},{"OBJECT_NAME":"STARLINK-36736","OBJECT_ID":"2026-036H","EPOCH":"2026-03-15T22:00:01.999584","MEAN_MOTION":15.67039749,"ECCENTRICITY":0.00018897,"INCLINATION":42.9996,"RA_OF_ASC_NODE":211.8143,"ARG_OF_PERICENTER":280.8955,"MEAN_ANOMALY":114.1635,"EPHEMERIS_TYPE":0,"CLASSIFICATION_TYPE":"U","NORAD_CAT_ID":67911,"ELEMENT_SET_NO":999,"REV_AT_EPOCH":464,"BSTAR":-0.019260892,"MEAN_MOTION_DOT":-0.01875903,"MEAN_MOTION_DDOT":0},{"OBJECT_NAME":"STARLINK-36676","OBJECT_ID":"2026-036J","EPOCH":"2026-03-15T22:00:01.999584","MEAN_MOTION":15.64923287,"ECCENTRICITY":0.00018906,"INCLINATION":42.9997,"RA_OF_ASC_NODE":211.8764,"ARG_OF_PERICENTER":277.7564,"MEAN_ANOMALY":92.4417,"EPHEMERIS_TYPE":0,"CLASSIFICATION_TYPE":"U","NORAD_CAT_ID":67912,"ELEMENT_SET_NO":999,"REV_AT_EPOCH":464,"BSTAR":-0.020865951,"MEAN_MOTION_DOT":-0.01865854,"MEAN_MOTION_DDOT":0},{"OBJECT_NAME":"STARLINK-36690","OBJECT_ID":"2026-036K","EPOCH":"2026-03-15T22:00:01.999584","MEAN_MOTION":15.6496623,"ECCENTRICITY":0.00019009,"INCLINATION":42.9994,"RA_OF_ASC_NODE":211.8641,"ARG_OF_PERICENTER":277.7623,"MEAN_ANOMALY":97.3154,"EPHEMERIS_TYPE":0,"CLASSIFICATION_TYPE":"U","NORAD_CAT_ID":67913,"ELEMENT_SET_NO":999,"REV_AT_EPOCH":464,"BSTAR":-0.020890749,"MEAN_MOTION_DOT":-0.01870701,"MEAN_MOTION_DDOT":0},{"OBJECT_NAME":"STARLINK-36724","OBJECT_ID":"2026-036L","EPOCH":"2026-03-15T22:00:01.999584","MEAN_MOTION":15.65349105,"ECCENTRICITY":0.00018247,"INCLINATION":42.9996,"RA_OF_ASC_NODE":211.828,"ARG_OF_PERICENTER":281.2,"MEAN_ANOMALY":108.0069,"EPHEMERIS_TYPE":0,"CLASSIFICATION_TYPE":"U","NORAD_CAT_ID":67914,"ELEMENT_SET_NO":999,"REV_AT_EPOCH":464,"BSTAR":-0.020529766,"MEAN_MOTION_DOT":-0.01867385,"MEAN_MOTION_DDOT":0},{"OBJECT_NAME":"STARLINK-36723","OBJECT_ID":"2026-036M","EPOCH":"2026-03-15T22:00:01.999584","MEAN_MOTION":15.6669811,"ECCENTRICITY":0.00018463,"INCLINATION":42.9991,"RA_OF_ASC_NODE":211.7934,"ARG_OF_PERICENTER":281.4571,"MEAN_ANOMALY":121.978,"EPHEMERIS_TYPE":0,"CLASSIFICATION_TYPE":"U","NORAD_CAT_ID":67915,"ELEMENT_SET_NO":999,"REV_AT_EPOCH":464,"BSTAR":-0.019535862,"MEAN_MOTION_DOT":-0.01876157,"MEAN_MOTION_DDOT":0},{"OBJECT_NAME":"STARLINK-36721","OBJECT_ID":"2026-036N","EPOCH":"2026-03-15T22:00:01.999584","MEAN_MOTION":15.66736032,"ECCENTRICITY":0.00018254,"INCLINATION":42.999,"RA_OF_ASC_NODE":211.7707,"ARG_OF_PERICENTER":283.8922,"MEAN_ANOMALY":128.5544,"EPHEMERIS_TYPE":0,"CLASSIFICATION_TYPE":"U","NORAD_CAT_ID":67916,"ELEMENT_SET_NO":999,"REV_AT_EPOCH":464,"BSTAR":-0.01956139,"MEAN_MOTION_DOT":-0.01880907,"MEAN_MOTION_DDOT":0},{"OBJECT_NAME":"STARLINK-36722","OBJECT_ID":"2026-036P","EPOCH":"2026-03-15T22:00:01.999584","MEAN_MOTION":15.6988593,"ECCENTRICITY":0.00016616,"INCLINATION":42.9996,"RA_OF_ASC_NODE":211.6671,"ARG_OF_PERICENTER":287.6875,"MEAN_ANOMALY":165.9156,"EPHEMERIS_TYPE":0,"CLASSIFICATION_TYPE":"U","NORAD_CAT_ID":67917,"ELEMENT_SET_NO":999,"REV_AT_EPOCH":464,"BSTAR":-0.017646349,"MEAN_MOTION_DOT":-0.01927626,"MEAN_MOTION_DDOT":0},{"OBJECT_NAME":"STARLINK-36341","OBJECT_ID":"2026-036Q","EPOCH":"2026-03-15T22:00:01.999584","MEAN_MOTION":15.52441609,"ECCENTRICITY":0.00017071,"INCLINATION":43,"RA_OF_ASC_NODE":212.434,"ARG_OF_PERICENTER":298.5039,"MEAN_ANOMALY":205.7874,"EPHEMERIS_TYPE":0,"CLASSIFICATION_TYPE":"U","NORAD_CAT_ID":67918,"ELEMENT_SET_NO":999,"REV_AT_EPOCH":464,"BSTAR":-0.039849749,"MEAN_MOTION_DOT":-0.02206833,"MEAN_MOTION_DDOT":0},{"OBJECT_NAME":"STARLINK-36663","OBJECT_ID":"2026-036R","EPOCH":"2026-03-15T22:00:01.999584","MEAN_MOTION":15.67024134,"ECCENTRICITY":0.00018326,"INCLINATION":42.9993,"RA_OF_ASC_NODE":211.74,"ARG_OF_PERICENTER":286.5102,"MEAN_ANOMALY":138.2054,"EPHEMERIS_TYPE":0,"CLASSIFICATION_TYPE":"U","NORAD_CAT_ID":67919,"ELEMENT_SET_NO":999,"REV_AT_EPOCH":464,"BSTAR":-0.019369149,"MEAN_MOTION_DOT":-0.01884144,"MEAN_MOTION_DDOT":0},{"OBJECT_NAME":"STARLINK-36375","OBJECT_ID":"2026-036S","EPOCH":"2026-03-15T22:00:01.999584","MEAN_MOTION":15.6117158,"ECCENTRICITY":0.00017323,"INCLINATION":42.9996,"RA_OF_ASC_NODE":211.9424,"ARG_OF_PERICENTER":271.993,"MEAN_ANOMALY":71.1292,"EPHEMERIS_TYPE":0,"CLASSIFICATION_TYPE":"U","NORAD_CAT_ID":67920,"ELEMENT_SET_NO":999,"REV_AT_EPOCH":464,"BSTAR":-0.024287657,"MEAN_MOTION_DOT":-0.01870668,"MEAN_MOTION_DDOT":0},{"OBJECT_NAME":"STARLINK-36405","OBJECT_ID":"2026-036T","EPOCH":"2026-03-15T22:00:01.999584","MEAN_MOTION":15.5253067,"ECCENTRICITY":0.00015634,"INCLINATION":42.9995,"RA_OF_ASC_NODE":212.3999,"ARG_OF_PERICENTER":269.7757,"MEAN_ANOMALY":248.4564,"EPHEMERIS_TYPE":0,"CLASSIFICATION_TYPE":"U","NORAD_CAT_ID":67921,"ELEMENT_SET_NO":999,"REV_AT_EPOCH":464,"BSTAR":-0.035772239,"MEAN_MOTION_DOT":-0.02010795,"MEAN_MOTION_DDOT":0},{"OBJECT_NAME":"STARLINK-36383","OBJECT_ID":"2026-036U","EPOCH":"2026-03-15T18:13:11.166528","MEAN_MOTION":15.82128017,"ECCENTRICITY":0.00012817,"INCLINATION":42.9988,"RA_OF_ASC_NODE":212.4189,"ARG_OF_PERICENTER":290.8131,"MEAN_ANOMALY":69.2603,"EPHEMERIS_TYPE":0,"CLASSIFICATION_TYPE":"U","NORAD_CAT_ID":67922,"ELEMENT_SET_NO":999,"REV_AT_EPOCH":463,"BSTAR":0.002119113,"MEAN_MOTION_DOT":0.00473451,"MEAN_MOTION_DDOT":0},{"OBJECT_NAME":"STARLINK-36406","OBJECT_ID":"2026-036V","EPOCH":"2026-03-15T22:00:01.999584","MEAN_MOTION":15.50510221,"ECCENTRICITY":0.00022629,"INCLINATION":42.9998,"RA_OF_ASC_NODE":212.6718,"ARG_OF_PERICENTER":279.4136,"MEAN_ANOMALY":128.2397,"EPHEMERIS_TYPE":0,"CLASSIFICATION_TYPE":"U","NORAD_CAT_ID":67923,"ELEMENT_SET_NO":999,"REV_AT_EPOCH":464,"BSTAR":0.0017071689,"MEAN_MOTION_DOT":0.00100865,"MEAN_MOTION_DDOT":0},{"OBJECT_NAME":"STARLINK-36714","OBJECT_ID":"2026-036W","EPOCH":"2026-03-15T22:00:01.999584","MEAN_MOTION":15.61772518,"ECCENTRICITY":0.00018595,"INCLINATION":42.9993,"RA_OF_ASC_NODE":211.8731,"ARG_OF_PERICENTER":277.5625,"MEAN_ANOMALY":93.313,"EPHEMERIS_TYPE":0,"CLASSIFICATION_TYPE":"U","NORAD_CAT_ID":67924,"ELEMENT_SET_NO":999,"REV_AT_EPOCH":464,"BSTAR":-0.023667127,"MEAN_MOTION_DOT":-0.01866872,"MEAN_MOTION_DDOT":0}]
