STARLINK-36822          
1 67909U 26036F   26074.91668981 -.01870503  00000+0 -25805-1 0  9991
2 67909  42.9995 212.1331 0001464 275.4523 351.5822 15.59610547  4640
STARLINK-36847          
1 67910U 26036G   26074.91668981 -.01868372  00000+0 -26644-1 0  9996
2 67910  42.9992 212.1635 0001296 280.0402 334.3524 15.58746889  4643
STARLINK-36736          
1 67911U 26036H   26074.91668981 -.01875903  00000+0 -19261-1 0  9992
2 67911  42.9996 211.8143 0001889 280.8955 114.1635 15.67039749  4644
STARLINK-36676          
1 67912U 26036J   26074.91668981 -.01865854  00000+0 -20866-1 0  9990
2 67912  42.9997 211.8764 0001890 277.7564  92.4417 15.64923287  4640
STARLINK-36690          
1 67913U 26036K   26074.91668981 -.01870701  00000+0 -20891-1 0  9996
2 67913  42.9994 211.8641 0001900 277.7623  97.3154 15.64966230  4647
STARLINK-36724          
1 67914U 26036L   26074.91668981 -.01867385  00000+0 -20530-1 0  9991
2 67914  42.9996 211.8280 0001824 281.2000 108.0069 15.65349105  4645
STARLINK-36723          
1 67915U 26036M   26074.91668981 -.01876157  00000+0 -19536-1 0  9993
2 67915  42.9991 211.7934 0001846 281.4571 121.9780 15.66698110  4643
STARLINK-36721          
1 67916U 26036N   26074.91668981 -.01880907  00000+0 -19561-1 0  9990
2 67916  42.9990 211.7707 0001825 283.8922 128.5544 15.66736032  4641
STARLINK-36722          
1 67917U 26036P   26074.91668981 -.01927626  00000+0 -17646-1 0  9993
2 67917  42.9996 211.6671 0001661 287.6875 165.9156 15.69885930  4643
STARLINK-36341          
1 67918U 26036Q   26074.91668981 -.02206833  00000+0 -39850-1 0  9996
2 67918  43.0000 212.4340 0001707 298.5039 205.7874 15.52441609  4641
STARLINK-36663          
1 67919U 26036R   26074.91668981 -.01884144  00000+0 -19369-1 0  9996
2 67919  42.9993 211.7400 0001832 286.5102 138.2054 15.67024134  4643
STARLINK-36375          
1 67920U 26036S   26074.91668981 -.01870668  00000+0 -24288-1 0  9990
2 67920  42.9996 211.9424 0001732 271.9930  71.1292 15.61171580  4643
STARLINK-36405          
1 67921U 26036T   26074.91668981 -.02010795  00000+0 -35772-1 0  9999
2 67921  42.9995 212.3999 0001563 269.7757 248.4564 15.52530670  4649
STARLINK-36383          
1 67922U 26036U   26074.75915702  .00473451  00000+0  21191-2 0  9997
2 67922  42.9988 212.4189 0001281 290.8131  69.2603 15.82128017  4635
STARLINK-36406          
1 67923U 26036V   26074.91668981  .00100865  00000+0  17072-2 0  9999
2 67923  42.9998 212.6718 0002262 279.4136 128.2397 15.50510221  4649
STARLINK-36714          
1 67924U 26036W   26074.91668981 -.01866872  00000+0 -23667-1 0  9996
2 67924  42.9993 211.8731 0001859 277.5625  93.3130 15.61772518  4642
